PROBA-1                 
1 26958U 01049B   26199.59768197  .00000775  00000+0  53806-4 0  9997
2 26958  97.9600 209.2300 0055445  18.4344 341.8875 15.07622022348352
CUTE-1 (CO-55)          
1 27844U 03031E   26199.29733931  .00000128  00000+0  74435-4 0  9993
2 27844  98.6744 207.4657 0010867  94.6885 265.5536 14.24352673196104
CUBESAT XI-IV (CO-57)   
1 27848U 03031J   26198.95002441  .00000107  00000+0  66203-4 0  9995
2 27848  98.6776 206.8106 0010632 112.1739 248.0569 14.23635431195756
APRIZESAT 4             
1 35684U 09041D   26199.20785920  .00000320  00000+0  44960-4 0  9991
2 35684  98.1401 275.1453 0042425 219.5290 140.2827 14.83916132915965
APRIZESAT 3             
1 35686U 09041F   26199.39547456  .00000335  00000+0  34575-4 0  9990
2 35686  98.2106 354.1225 0060719 325.2284  34.4974 14.96315172921043
PROBA-2                 
1 36037U 09059B   26199.32692373  .00000059  00000+0  24359-4 0  9994
2 36037  98.2462  22.2497 0013227 178.9883 181.1343 14.54874349886054
APRIZESAT 5             
1 37792U 11044E   26199.62420969  .00000328  00000+0  48972-4 0  9999
2 37792  98.2448 133.5573 0050678 261.3416  98.2052 14.81130424803444
APRIZESAT 6             
1 37793U 11044F   26199.32230730  .00000338  00000+0  55279-4 0  9991
2 37793  98.2333 110.4548 0042799 348.2433 132.8233 14.76959345801745
PROBA-V                 
1 39159U 13021A   26199.39578136  .00000005  00000+0  20173-4 0  9994
2 39159  98.3607 176.4652 0005136  52.5308 307.6338 14.23603663685554
APRIZESAT 7             
1 39416U 13066A   26199.28091902  .00000713  00000+0  75747-4 0  9991
2 39416  97.7723 152.0576 0037300 107.4902 253.0399 14.91623038685863
APRIZESAT 8             
1 39425U 13066K   26199.28298929  .00000360  00000+0  44989-4 0  9991
2 39425  97.8230 146.3203 0045770 181.6783 178.4288 14.87698849684291
BUGSAT-1 (TITA)         
1 40014U 14033E   26199.59145179  .00002990  00000+0  15849-3 0  9997
2 40014  98.0432 293.9842 0028965  74.8415 285.6017 15.15903243660591
SAUDISAT 4              
1 40016U 14033G   26199.29561704  .00000218  00000+0  35601-4 0  9992
2 40016  97.7622 344.3616 0044003 333.8672  26.0319 14.79577317650672
APRIZESAT 9             
1 40018U 14033J   26199.29354985  .00000291  00000+0  50115-4 0  9993
2 40018  97.9099 331.7382 0067502 100.1927 260.6904 14.74254835648148
APRIZESAT 10            
1 40019U 14033K   26199.62319527  .00000274  00000+0  50867-4 0  9999
2 40019  97.9686 325.8876 0079004 172.4186 187.8236 14.70913159646875
TECHDEMOSAT-1 (TDS-1)   
1 40076U 14037H   26199.23129014  .00003422  00000+0  19436-3 0  9997
2 40076  98.3830 194.5338 0007232 149.4673 210.6978 15.13703160652925
TECHNOSAT               
1 42829U 17042E   26199.16474853  .00001358  00000+0  99292-4 0  9995
2 42829  97.4322 355.6525 0017144 353.8283   6.2730 15.05120470491360
FLYING LAPTOP           
1 42831U 17042G   26199.64585448  .00002050  00000+0  16311-3 0  9994
2 42831  97.4826 353.9983 0019543  21.5324 338.6718 15.01326759491172
HAWK-A                  
1 43765U 18099H   26199.58489696  .00003500  00000+0  14085-3 0  9992
2 43765  97.3892 251.4155 0035068 172.1084 188.0714 15.24989925417884
HAWK-B                  
1 43794U 18099AN  26199.57848355  .00003028  00000+0  12957-3 0  9995
2 43794  97.3944 250.7577 0031728 190.0789 169.9816 15.23136866417815
HAWK-C                  
1 43799U 18099AT  26199.62062405  .00004379  00000+0  15674-3 0  9999
2 43799  97.3867 252.5194 0040656 171.7627 188.4290 15.28522216418711
SALSAT                  
1 46495U 20068K   26199.01462697  .00004061  00000+0  14177-3 0  9999
2 46495  97.8861 203.9671 0009495 182.8082 177.3106 15.30195257320078
HAWK-2C                 
1 47502U 21006CT  26199.57643199  .00003297  00000+0  99273-4 0  9992
2 47502  97.2259 243.2646 0008687  91.3924 268.8315 15.35013032304315
HAWK-2A                 
1 47505U 21006CW  26199.57860906  .00003430  00000+0  10312-3 0  9997
2 47505  97.2300 243.9628 0008241  94.6100 265.6085 15.35034159304312
HAWK-2B                 
1 47508U 21006CZ  26199.57185117  .00003828  00000+0  11433-3 0  9990
2 47508  97.2172 242.2388 0008771  93.0015 267.2233 15.35163672304319
HAWK-3B                 
1 48931U 21059BE  26199.09212460  .00031299  00000+0  23996-3 0  9998
2 48931  97.6632  38.7819 0004731 187.5925 172.5267 15.72043913282702
HAWK-3C                 
1 48948U 21059BX  26199.09180544  .00029344  00000+0  22507-3 0  9998
2 48948  97.6749  44.5200 0005037 187.8290 172.2895 15.72043790282703
HAWK-3A                 
1 48957U 21059CG  26199.09169414  .00030363  00000+0  23284-3 0  9997
2 48957  97.6693  41.6998 0004927 190.0290 170.0875 15.72042965282703
HAWK-5C                 
1 52754U 22057Y   26199.31603590  .00010668  00000+0  17655-3 0  9990
2 52754  97.6626   1.0202 0002497 331.6084  28.5031 15.52393709231170
HAWK-5B                 
1 52756U 22057AA  26199.12248197  .00010427  00000+0  17265-3 0  9999
2 52756  97.6638 359.1680 0003199 318.5187  41.5822 15.52385437231149
