OBJECT_NAME,OBJECT_ID,EPOCH,MEAN_MOTION,ECCENTRICITY,INCLINATION,RA_OF_ASC_NODE,ARG_OF_PERICENTER,MEAN_ANOMALY,EPHEMERIS_TYPE,CLASSIFICATION_TYPE,NORAD_CAT_ID,ELEMENT_SET_NO,REV_AT_EPOCH,BSTAR,MEAN_MOTION_DOT,MEAN_MOTION_DDOT
PROBA-1,2001-049B,2026-07-18T14:20:39.722208,15.07622022,.00554451,97.9600,209.2300,18.4344,341.8875,0,U,26958,999,34835,.53805577E-4,.775E-5,0
CUTE-1 (CO-55),2003-031E,2026-07-18T07:08:10.116384,14.24352673,.00108679,98.6744,207.4657,94.6885,265.5536,0,U,27844,999,19610,.74435316E-4,.128E-5,0
CUBESAT XI-IV (CO-57),2003-031J,2026-07-17T22:48:02.109024,14.23635431,.00106323,98.6776,206.8106,112.1739,248.0569,0,U,27848,999,19575,.66203101E-4,.107E-5,0
APRIZESAT 4,2009-041D,2026-07-18T04:59:19.034880,14.83916132,.00424258,98.1401,275.1453,219.5290,140.2827,0,U,35684,999,91596,.44960104E-4,.32E-5,0
APRIZESAT 3,2009-041F,2026-07-18T09:29:29.001984,14.96315172,.00607195,98.2106,354.1225,325.2284,34.4974,0,U,35686,999,92104,.34575461E-4,.335E-5,0
PROBA-2,2009-059B,2026-07-18T07:50:46.210272,14.54874349,.00132273,98.2462,22.2497,178.9883,181.1343,0,U,36037,999,88605,.24359219E-4,.59E-6,0
APRIZESAT 5,2011-044E,2026-07-18T14:58:51.717216,14.81130424,.00506781,98.2448,133.5573,261.3416,98.2052,0,U,37792,999,80344,.4897173E-4,.328E-5,0
APRIZESAT 6,2011-044F,2026-07-18T07:44:07.350720,14.76959345,.00427996,98.2333,110.4548,348.2433,132.8233,0,U,37793,999,80174,.55279494E-4,.338E-5,0
PROBA-V,2013-021A,2026-07-18T09:29:55.509504,14.23603663,.00051368,98.3607,176.4652,52.5308,307.6338,0,U,39159,999,68555,.20173321E-4,.5E-7,0
APRIZESAT 7,2013-066A,2026-07-18T06:44:31.403328,14.91623038,.00373007,97.7723,152.0576,107.4902,253.0399,0,U,39416,999,68586,.75746713E-4,.713E-5,0
APRIZESAT 8,2013-066K,2026-07-18T06:47:30.274656,14.87698849,.004577,97.8230,146.3203,181.6783,178.4288,0,U,39425,999,68429,.44988904E-4,.36E-5,0
BUGSAT-1 (TITA),2014-033E,2026-07-18T14:11:41.434656,15.15903243,.00289659,98.0432,293.9842,74.8415,285.6017,0,U,40014,999,66059,.15848555E-3,.299E-4,0
SAUDISAT 4,2014-033G,2026-07-18T07:05:41.312256,14.79577317,.00440036,97.7622,344.3616,333.8672,26.0319,0,U,40016,999,65067,.35600721E-4,.218E-5,0
APRIZESAT 9,2014-033J,2026-07-18T07:02:42.707040,14.74254835,.00675024,97.9099,331.7382,100.1927,260.6904,0,U,40018,999,64814,.50115052E-4,.291E-5,0
APRIZESAT 10,2014-033K,2026-07-18T14:57:24.071328,14.70913159,.00790047,97.9686,325.8876,172.4186,187.8236,0,U,40019,999,64687,.50867089E-4,.274E-5,0
TECHDEMOSAT-1 (TDS-1),2014-037H,2026-07-18T05:33:03.468096,15.13703160,.00072323,98.3830,194.5338,149.4673,210.6978,0,U,40076,999,65292,.19435845E-3,.3422E-4,0
TECHNOSAT,2017-042E,2026-07-18T03:57:14.272992,15.05120470,.00171445,97.4322,355.6525,353.8283,6.2730,0,U,42829,999,49136,.9929248E-4,.1358E-4,0
FLYING LAPTOP,2017-042G,2026-07-18T15:30:01.827072,15.01326759,.00195434,97.4826,353.9983,21.5324,338.6718,0,U,42831,999,49117,.16311436E-3,.205E-4,0
HAWK-A,2018-099H,2026-07-18T14:02:15.097344,15.24989925,.0035068,97.3892,251.4155,172.1084,188.0714,0,U,43765,999,41788,.14085029E-3,.35E-4,0
HAWK-B,2018-099AN,2026-07-18T13:53:00.978720,15.23136866,.00317286,97.3944,250.7577,190.0789,169.9816,0,U,43794,999,41781,.12956926E-3,.3028E-4,0
HAWK-C,2018-099AT,2026-07-18T14:53:41.917920,15.28522216,.00406563,97.3867,252.5194,171.7627,188.4290,0,U,43799,999,41871,.15674447E-3,.4379E-4,0
SALSAT,2020-068K,2026-07-18T00:21:03.770208,15.30195257,.00094957,97.8861,203.9671,182.8082,177.3106,0,U,46495,999,32007,.14176866E-3,.4061E-4,0
HAWK-2C,2021-006CT,2026-07-18T13:50:03.723936,15.35013032,.00086877,97.2259,243.2646,91.3924,268.8315,0,U,47502,999,30431,.99272839E-4,.3297E-4,0
HAWK-2A,2021-006CW,2026-07-18T13:53:11.822784,15.35034159,.00082414,97.2300,243.9628,94.6100,265.6085,0,U,47505,999,30431,.10312231E-3,.343E-4,0
HAWK-2B,2021-006CZ,2026-07-18T13:43:27.941088,15.35163672,.00087714,97.2172,242.2388,93.0015,267.2233,0,U,47508,999,30431,.11433149E-3,.3828E-4,0
HAWK-3B,2021-059BE,2026-07-18T02:12:39.565440,15.72043913,.00047312,97.6632,38.7819,187.5925,172.5267,0,U,48931,999,28270,.23995635E-3,.31299E-3,0
HAWK-3C,2021-059BX,2026-07-18T02:12:11.990016,15.72043790,.00050371,97.6749,44.5200,187.8290,172.2895,0,U,48948,999,28270,.22506655E-3,.29344E-3,0
HAWK-3A,2021-059CG,2026-07-18T02:12:02.373696,15.72042965,.00049271,97.6693,41.6998,190.0290,170.0875,0,U,48957,999,28270,.23283719E-3,.30363E-3,0
HAWK-5C,2022-057Y,2026-07-18T07:35:05.501760,15.52393709,.00024975,97.6626,1.0202,331.6084,28.5031,0,U,52754,999,23117,.17654677E-3,.10668E-3,0
HAWK-5B,2022-057AA,2026-07-18T02:56:22.442208,15.52385437,.0003199,97.6638,359.1680,318.5187,41.5822,0,U,52756,999,23114,.17264586E-3,.10427E-3,0
